{
  "type": "FeatureCollection",
  "features": [
    {
      "type": "Feature",
      "properties": {
        "norad_id": 22675,
        "name": "COSMOS 2251",
        "group": "cosmos-2251-debris",
        "lat": 60.70118635997786,
        "lon": 83.36231397399713,
        "alt_km": 778.3168820254405,
        "timestamp": "2025-12-24T16:52:41.929657+00:00",
        "meta_object_name": "COSMOS 2251",
        "meta_object_id": "1993-036A",
        "meta_epoch": "2025-12-24T06:17:40.442496",
        "meta_mean_motion": 14.33208234,
        "meta_eccentricity": 0.00244238,
        "meta_inclination": 74.04,
        "meta_ra_of_asc_node": 294.8303,
        "meta_arg_of_pericenter": 13.9405,
        "meta_mean_anomaly": 346.2415,
        "meta_ephemeris_type": 0,
        "meta_classification_type": "U",
        "meta_norad_cat_id": 22675,
        "meta_element_set_no": 999,
        "meta_rev_at_epoch": 69938,
        "meta_bstar": 6.0142344e-05,
        "meta_mean_motion_dot": 1.4e-06,
        "meta_mean_motion_ddot": 0,
        "tle_line1": "1 22675U 93036A   25358.26227364  .00000140  00000+0  60142-4 0  9999",
        "tle_line2": "2 22675  74.0400 294.8303 0024423  13.9405 346.2415 14.33208234699385"
      },
      "geometry": {
        "type": "Point",
        "coordinates": [
          83.36231397399713,
          60.70118635997786
        ]
      }
    },
    {
      "type": "Feature",
      "properties": {
        "norad_id": 33757,
        "name": "COSMOS 2251 DEB",
        "group": "cosmos-2251-debris",
        "lat": 50.49403194837484,
        "lon": 101.4574327871472,
        "alt_km": 789.2270986952353,
        "timestamp": "2025-12-24T16:52:41.929696+00:00",
        "meta_object_name": "COSMOS 2251 DEB",
        "meta_object_id": "1993-036E",
        "meta_epoch": "2025-12-24T06:59:25.465344",
        "meta_mean_motion": 14.32583855,
        "meta_eccentricity": 0.00156198,
        "meta_inclination": 74.0376,
        "meta_ra_of_asc_node": 302.5216,
        "meta_arg_of_pericenter": 314.0096,
        "meta_mean_anomaly": 208.5968,
        "meta_ephemeris_type": 0,
        "meta_classification_type": "U",
        "meta_norad_cat_id": 33757,
        "meta_element_set_no": 999,
        "meta_rev_at_epoch": 88161,
        "meta_bstar": 5.0051571e-05,
        "meta_mean_motion_dot": 1.1e-06,
        "meta_mean_motion_ddot": 0,
        "tle_line1": "1 33757U 93036E   25358.29126696  .00000110  00000+0  50052-4 0  9997",
        "tle_line2": "2 33757  74.0376 302.5216 0015619 314.0096 208.5968 14.32583855881614"
      },
      "geometry": {
        "type": "Point",
        "coordinates": [
          101.4574327871472,
          50.49403194837484
        ]
      }
    },
    {
      "type": "Feature",
      "properties": {
        "norad_id": 33758,
        "name": "COSMOS 2251 DEB",
        "group": "cosmos-2251-debris",
        "lat": 8.228925676655283,
        "lon": 10.121087346557768,
        "alt_km": 721.0462627011493,
        "timestamp": "2025-12-24T16:52:41.929713+00:00",
        "meta_object_name": "COSMOS 2251 DEB",
        "meta_object_id": "1993-036F",
        "meta_epoch": "2025-12-23T22:27:50.406048",
        "meta_mean_motion": 14.51656106,
        "meta_eccentricity": 0.0017178,
        "meta_inclination": 74.0261,
        "meta_ra_of_asc_node": 193.9401,
        "meta_arg_of_pericenter": 259.8682,
        "meta_mean_anomaly": 223.5939,
        "meta_ephemeris_type": 0,
        "meta_classification_type": "U",
        "meta_norad_cat_id": 33758,
        "meta_element_set_no": 999,
        "meta_rev_at_epoch": 88467,
        "meta_bstar": 0.00077284,
        "meta_mean_motion_dot": 3.078e-05,
        "meta_mean_motion_ddot": 0,
        "tle_line1": "1 33758U 93036F   25357.93600007  .00003078  00000+0  77284-3 0  9992",
        "tle_line2": "2 33758  74.0261 193.9401 0017178 259.8682 223.5939 14.51656106884670"
      },
      "geometry": {
        "type": "Point",
        "coordinates": [
          10.121087346557768,
          8.228925676655283
        ]
      }
    },
    {
      "type": "Feature",
      "properties": {
        "norad_id": 33760,
        "name": "COSMOS 2251 DEB",
        "group": "cosmos-2251-debris",
        "lat": 31.42627365129985,
        "lon": 69.42457996471788,
        "alt_km": 783.5621991781109,
        "timestamp": "2025-12-24T16:52:41.929727+00:00",
        "meta_object_name": "COSMOS 2251 DEB",
        "meta_object_id": "1993-036H",
        "meta_epoch": "2025-12-24T05:03:00.388224",
        "meta_mean_motion": 14.35679993,
        "meta_eccentricity": 0.00203946,
        "meta_inclination": 74.0319,
        "meta_ra_of_asc_node": 260.4048,
        "meta_arg_of_pericenter": 356.0116,
        "meta_mean_anomaly": 124.739,
        "meta_ephemeris_type": 0,
        "meta_classification_type": "U",
        "meta_norad_cat_id": 33760,
        "meta_element_set_no": 999,
        "meta_rev_at_epoch": 88289,
        "meta_bstar": 0.00010680359,
        "meta_mean_motion_dot": 2.83e-06,
        "meta_mean_motion_ddot": 0,
        "tle_line1": "1 33760U 93036H   25358.21042116  .00000283  00000+0  10680-3 0  9990",
        "tle_line2": "2 33760  74.0319 260.4048 0020394 356.0116 124.7390 14.35679993882896"
      },
      "geometry": {
        "type": "Point",
        "coordinates": [
          69.42457996471788,
          31.42627365129985
        ]
      }
    },
    {
      "type": "Feature",
      "properties": {
        "norad_id": 33761,
        "name": "COSMOS 2251 DEB",
        "group": "cosmos-2251-debris",
        "lat": 11.649837018634427,
        "lon": -126.6496666922587,
        "alt_km": 743.601271636262,
        "timestamp": "2025-12-24T16:52:41.929739+00:00",
        "meta_object_name": "COSMOS 2251 DEB",
        "meta_object_id": "1993-036J",
        "meta_epoch": "2025-12-24T02:25:31.431072",
        "meta_mean_motion": 14.42574902,
        "meta_eccentricity": 0.00233185,
        "meta_inclination": 74.0349,
        "meta_ra_of_asc_node": 231.0836,
        "meta_arg_of_pericenter": 309.7367,
        "meta_mean_anomaly": 176.1109,
        "meta_ephemeris_type": 0,
        "meta_classification_type": "U",
        "meta_norad_cat_id": 33761,
        "meta_element_set_no": 999,
        "meta_rev_at_epoch": 88398,
        "meta_bstar": 0.00035684609,
        "meta_mean_motion_dot": 1.162e-05,
        "meta_mean_motion_ddot": 0,
        "tle_line1": "1 33761U 93036J   25358.10105823  .00001162  00000+0  35685-3 0  9993",
        "tle_line2": "2 33761  74.0349 231.0836 0023318 309.7367 176.1109 14.42574902883983"
      },
      "geometry": {
        "type": "Point",
        "coordinates": [
          -126.6496666922587,
          11.649837018634427
        ]
      }
    },
    {
      "type": "Feature",
      "properties": {
        "norad_id": 33762,
        "name": "COSMOS 2251 DEB",
        "group": "cosmos-2251-debris",
        "lat": -1.6606971594113404,
        "lon": -72.32045964174281,
        "alt_km": 771.4702719955203,
        "timestamp": "2025-12-24T16:52:41.929752+00:00",
        "meta_object_name": "COSMOS 2251 DEB",
        "meta_object_id": "1993-036K",
        "meta_epoch": "2025-12-24T05:51:46.314720",
        "meta_mean_motion": 14.33667231,
        "meta_eccentricity": 0.00154746,
        "meta_inclination": 74.0422,
        "meta_ra_of_asc_node": 288.9936,
        "meta_arg_of_pericenter": 347.7117,
        "meta_mean_anomaly": 162.7185,
        "meta_ephemeris_type": 0,
        "meta_classification_type": "U",
        "meta_norad_cat_id": 33762,
        "meta_element_set_no": 999,
        "meta_rev_at_epoch": 88212,
        "meta_bstar": 6.0369141e-05,
        "meta_mean_motion_dot": 1.42e-06,
        "meta_mean_motion_ddot": 0,
        "tle_line1": "1 33762U 93036K   25358.24428605  .00000142  00000+0  60369-4 0  9990",
        "tle_line2": "2 33762  74.0422 288.9936 0015474 347.7117 162.7185 14.33667231882125"
      },
      "geometry": {
        "type": "Point",
        "coordinates": [
          -72.32045964174281,
          -1.6606971594113404
        ]
      }
    },
    {
      "type": "Feature",
      "properties": {
        "norad_id": 33764,
        "name": "COSMOS 2251 DEB",
        "group": "cosmos-2251-debris",
        "lat": 28.8385453770834,
        "lon": -100.36309648465307,
        "alt_km": 775.0150988391306,
        "timestamp": "2025-12-24T16:52:41.929764+00:00",
        "meta_object_name": "COSMOS 2251 DEB",
        "meta_object_id": "1993-036M",
        "meta_epoch": "2025-12-24T04:06:12.943296",
        "meta_mean_motion": 14.39532612,
        "meta_eccentricity": 0.00234211,
        "meta_inclination": 74.0331,
        "meta_ra_of_asc_node": 251.549,
        "meta_arg_of_pericenter": 215.0924,
        "meta_mean_anomaly": 297.767,
        "meta_ephemeris_type": 0,
        "meta_classification_type": "U",
        "meta_norad_cat_id": 33764,
        "meta_element_set_no": 999,
        "meta_rev_at_epoch": 88321,
        "meta_bstar": 0.00028462878,
        "meta_mean_motion_dot": 8.64e-06,
        "meta_mean_motion_ddot": 0,
        "tle_line1": "1 33764U 93036M   25358.17098314  .00000864  00000+0  28463-3 0  9993",
        "tle_line2": "2 33764  74.0331 251.5490 0023421 215.0924 297.7670 14.39532612883210"
      },
      "geometry": {
        "type": "Point",
        "coordinates": [
          -100.36309648465307,
          28.8385453770834
        ]
      }
    }
  ]
}